ORBCOMM FM01 [-]        
1 23545U 95017A   23307.79983356  .00007631  00000+0  10882-2 0  9993
2 23545  69.9683  92.3354 0003488 168.7623 191.3603 14.77098811524835
ORBCOMM FM02 [-]        
1 23546U 95017B   23307.91188349  .00007889  00000+0  11375-2 0  9990
2 23546  69.9692 111.1471 0005136 146.0910 214.0567 14.76603946524502
ORBCOMM FM11 [+]        
1 25114U 97084C   23307.74260159  .00002430  00000+0  78784-3 0  9995
2 25114  45.0153 318.3065 0003731 123.4838 236.6369 14.41315848356033
ORBCOMM FM12 [-]        
1 25115U 97084D   23307.76829064  .00002300  00000+0  74834-3 0  9992
2 25115  45.0160 317.8298 0002810 129.2690 230.8409 14.41300748355832
ORBCOMM FM09 [-]        
1 25116U 97084E   23307.35956060  .00001893  00000+0  62394-3 0  9999
2 25116  45.0163 320.4132 0003814  98.0746 262.0536 14.41273125355985
